{
  "links" : {
    "next" : "https://api.nasa.gov/neo/rest/v1/feed?start_date=2016-03-16&end_date=2016-03-16&detailed=true&api_key=t0TVs3DtDT2H8Oy2Zy8m2eVrNsAVKAexjcZXUckd",
    "prev" : "https://api.nasa.gov/neo/rest/v1/feed?start_date=2016-03-14&end_date=2016-03-14&detailed=true&api_key=t0TVs3DtDT2H8Oy2Zy8m2eVrNsAVKAexjcZXUckd",
    "self" : "https://api.nasa.gov/neo/rest/v1/feed?start_date=2016-03-15&end_date=2016-03-15&detailed=true&api_key=t0TVs3DtDT2H8Oy2Zy8m2eVrNsAVKAexjcZXUckd"
  },
  "element_count" : 14,
  "near_earth_objects" : {
    "2016-03-15" : [ {
      "links" : {
        "self" : "https://api.nasa.gov/neo/rest/v1/neo/3748361?api_key=t0TVs3DtDT2H8Oy2Zy8m2eVrNsAVKAexjcZXUckd"
      },
      "neo_reference_id" : "3748361",
      "name" : "(2016 FB12)",
      "nasa_jpl_url" : "http://ssd.jpl.nasa.gov/sbdb.cgi?sstr=3748361",
      "absolute_magnitude_h" : 26.0,
      "estimated_diameter" : {
        "kilometers" : {
          "estimated_diameter_min" : 0.0167708462,
          "estimated_diameter_max" : 0.0375007522
        },
        "meters" : {
          "estimated_diameter_min" : 16.7708462163,
          "estimated_diameter_max" : 37.5007521798
        },
        "miles" : {
          "estimated_diameter_min" : 0.0104209175,
          "estimated_diameter_max" : 0.0233018799
        },
        "feet" : {
          "estimated_diameter_min" : 55.0224631002,
          "estimated_diameter_max" : 123.0339677816
        }
      },
      "is_potentially_hazardous_asteroid" : false,
      "close_approach_data" : [ {
        "close_approach_date" : "2016-03-15",
        "epoch_date_close_approach" : 1458025200000,
        "relative_velocity" : {
          "kilometers_per_second" : "6.2433166186",
          "kilometers_per_hour" : "22475.9398271162",
          "miles_per_hour" : "13965.6749442434"
        },
        "miss_distance" : {
          "astronomical" : "0.0275802651",
          "lunar" : "10.728723526",
          "kilometers" : "4125949",
          "miles" : "2563745.75"
        },
        "orbiting_body" : "Earth"
      } ],
      "orbital_data" : {
        "orbit_id" : "4",
        "orbit_determination_date" : "2017-04-06 08:27:14",
        "orbit_uncertainty" : "8",
        "minimum_orbit_intersection" : ".0260198",
        "jupiter_tisserand_invariant" : "4.872",
        "epoch_osculation" : "2457476.5",
        "eccentricity" : ".2642860815610491",
        "semi_major_axis" : "1.332653894253801",
        "inclination" : "7.737790379776813",
        "ascending_node_longitude" : ".4100562783676639",
        "orbital_period" : "561.9199949020571",
        "perihelion_distance" : ".9804520184643912",
        "perihelion_argument" : "140.2160937250243",
        "aphelion_distance" : "1.684855770043211",
        "perihelion_time" : "2457432.567100459484",
        "mean_anomaly" : "28.14607769446337",
        "mean_motion" : ".6406605980674316",
        "equinox" : "J2000"
      }
    }, {
      "links" : {
        "self" : "https://api.nasa.gov/neo/rest/v1/neo/2023187?api_key=t0TVs3DtDT2H8Oy2Zy8m2eVrNsAVKAexjcZXUckd"
      },
      "neo_reference_id" : "2023187",
      "name" : "23187 (2000 PN9)",
      "nasa_jpl_url" : "http://ssd.jpl.nasa.gov/sbdb.cgi?sstr=2023187",
      "absolute_magnitude_h" : 16.1,
      "estimated_diameter" : {
        "kilometers" : {
          "estimated_diameter_min" : 1.6016033798,
          "estimated_diameter_max" : 3.5812940302
        },
        "meters" : {
          "estimated_diameter_min" : 1601.6033797856,
          "estimated_diameter_max" : 3581.2940301941
        },
        "miles" : {
          "estimated_diameter_min" : 0.9951898937,
          "estimated_diameter_max" : 2.2253122528
        },
        "feet" : {
          "estimated_diameter_min" : 5254.6044325359,
          "estimated_diameter_max" : 11749.652706022
        }
      },
      "is_potentially_hazardous_asteroid" : true,
      "close_approach_data" : [ {
        "close_approach_date" : "2016-03-15",
        "epoch_date_close_approach" : 1458025200000,
        "relative_velocity" : {
          "kilometers_per_second" : "34.9568700296",
          "kilometers_per_hour" : "125844.7321065942",
          "miles_per_hour" : "78195.0225692335"
        },
        "miss_distance" : {
          "astronomical" : "0.2322031894",
          "lunar" : "90.327041626",
          "kilometers" : "34737104",
          "miles" : "21584634"
        },
        "orbiting_body" : "Earth"
      } ],
      "orbital_data" : {
        "orbit_id" : "278",
        "orbit_determination_date" : "2017-09-20 06:19:47",
        "orbit_uncertainty" : "0",
        "minimum_orbit_intersection" : ".0128391",
        "jupiter_tisserand_invariant" : "3.419",
        "epoch_osculation" : "2458000.5",
        "eccentricity" : ".5893883686838894",
        "semi_major_axis" : "1.846780279691228",
        "inclination" : "51.31335245258825",
        "ascending_node_longitude" : "164.3601894955358",
        "orbital_period" : "916.6874159207885",
        "perihelion_distance" : ".7583094633264379",
        "perihelion_argument" : "293.5331962595734",
        "aphelion_distance" : "2.935251096056017",
        "perihelion_time" : "2458340.609559607947",
        "mean_anomaly" : "226.4327235954541",
        "mean_motion" : ".3927183833306901",
        "equinox" : "J2000"
      }
    }, {
      "links" : {
        "self" : "https://api.nasa.gov/neo/rest/v1/neo/2162510?api_key=t0TVs3DtDT2H8Oy2Zy8m2eVrNsAVKAexjcZXUckd"
      },
      "neo_reference_id" : "2162510",
      "name" : "162510 (2000 QW69)",
      "nasa_jpl_url" : "http://ssd.jpl.nasa.gov/sbdb.cgi?sstr=2162510",
      "absolute_magnitude_h" : 17.5,
      "estimated_diameter" : {
        "kilometers" : {
          "estimated_diameter_min" : 0.8405334021,
          "estimated_diameter_max" : 1.8794898244
        },
        "meters" : {
          "estimated_diameter_min" : 840.5334020728,
          "estimated_diameter_max" : 1879.4898243938
        },
        "miles" : {
          "estimated_diameter_min" : 0.5222830806,
          "estimated_diameter_max" : 1.1678604717
        },
        "feet" : {
          "estimated_diameter_min" : 2757.6556068564,
          "estimated_diameter_max" : 6166.3053954643
        }
      },
      "is_potentially_hazardous_asteroid" : true,
      "close_approach_data" : [ {
        "close_approach_date" : "2016-03-15",
        "epoch_date_close_approach" : 1458025200000,
        "relative_velocity" : {
          "kilometers_per_second" : "20.6249522442",
          "kilometers_per_hour" : "74249.8280791013",
          "miles_per_hour" : "46135.9556750394"
        },
        "miss_distance" : {
          "astronomical" : "0.25628896",
          "lunar" : "99.6964035034",
          "kilometers" : "38340280",
          "miles" : "23823546"
        },
        "orbiting_body" : "Earth"
      } ],
      "orbital_data" : {
        "orbit_id" : "111",
        "orbit_determination_date" : "2017-04-06 09:26:29",
        "orbit_uncertainty" : "0",
        "minimum_orbit_intersection" : ".0260357",
        "jupiter_tisserand_invariant" : "4.552",
        "epoch_osculation" : "2458000.5",
        "eccentricity" : ".3022088585728846",
        "semi_major_axis" : "1.376098016513325",
        "inclination" : "38.15140244980427",
        "ascending_node_longitude" : "344.3571079567271",
        "orbital_period" : "589.6203716354454",
        "perihelion_distance" : ".9602290056584227",
        "perihelion_argument" : "220.6931621886702",
        "aphelion_distance" : "1.791967027368228",
        "perihelion_time" : "2458092.179168051601",
        "mean_anomaly" : "304.0241516638395",
        "mean_motion" : ".6105623504857178",
        "equinox" : "J2000"
      }
    } ]
  }
}